OBJECT_NAME,OBJECT_ID,EPOCH,MEAN_MOTION,ECCENTRICITY,INCLINATION,RA_OF_ASC_NODE,ARG_OF_PERICENTER,MEAN_ANOMALY,EPHEMERIS_TYPE,CLASSIFICATION_TYPE,NORAD_CAT_ID,ELEMENT_SET_NO,REV_AT_EPOCH,BSTAR,MEAN_MOTION_DOT,MEAN_MOTION_DDOT
STARLINK-37502,2026-117AB,2026-06-04T04:00:03.000096,16.09730989,.000015,53.1582,309.0570,67.0238,247.1279,0,U,69263,999,207,-.18103E-2,-.1713827E-1,.99942E-3
STARLINK-37486,2026-117AC,2026-06-04T04:00:03.000096,16.10148844,.0000335,53.1581,309.0474,96.0445,222.8771,0,U,69264,999,207,-.17191E-2,-.1673202E-1,.96066E-3
STARLINK-37435,2026-117AD,2026-06-04T04:00:03.000096,16.10457608,.0000188,53.1582,309.0380,123.3612,199.6744,0,U,69265,999,207,-.16469E-2,-.1636482E-1,.9253E-3
STARLINK-37464,2026-117AE,2026-06-04T04:00:03.000096,16.10864000,.000023,53.1581,309.0290,98.4415,228.9483,0,U,69266,999,207,-.15866E-2,-.1619818E-1,.91268E-3
KUIPER-00282,2026-118A,2026-06-04T04:00:03.000096,15.35300288,.0012064,51.8580,116.3063,138.4837,39.3543,0,U,69267,999,135,.30725E-3,.10344E-3,0
KUIPER-00383,2026-118B,2026-06-04T04:00:03.000096,15.35758593,.001101,51.8583,116.2918,134.9344,49.9817,0,U,69268,999,141,.30212E-3,.10315E-3,0
KUIPER-00527,2026-118C,2026-06-04T04:00:03.000096,15.36110833,.0009771,51.8608,116.2764,129.5169,62.8291,0,U,69269,999,130,.29168E-3,.10057E-3,0
KUIPER-00562,2026-118D,2026-06-04T04:00:03.000096,15.38310886,.0002153,51.8710,116.1792,73.4115,158.9325,0,U,69270,999,194,.42771E-3,.16046E-3,0
KUIPER-00570,2026-118E,2026-06-04T04:00:03.000096,15.35665445,.0010595,51.8569,116.2890,138.9378,47.4977,0,U,69271,999,153,.44734E-3,.15423E-3,0
KUIPER-00572,2026-118F,2026-06-04T04:00:03.000096,15.36680380,.0007455,51.8664,116.2536,123.5940,78.5463,0,U,69272,999,130,.3913E-3,.13883E-3,0
KUIPER-00581,2026-118G,2026-06-04T04:00:03.000096,15.36363683,.0008948,51.8644,116.2671,128.5646,67.6558,0,U,69273,999,207,.2938E-3,.10216E-3,0
KUIPER-00584,2026-118H,2026-06-04T04:00:03.000096,15.35318419,.0011688,51.8598,116.2987,138.5923,42.9102,0,U,69274,999,130,.24536E-3,.8184E-4,0
KUIPER-00587,2026-118J,2026-06-04T04:00:03.000096,15.36387469,.0008384,51.8619,116.2616,128.6722,70.8306,0,U,69275,999,130,.99133E-4,.3187E-4,0
KUIPER-00590,2026-118K,2026-06-04T04:00:03.000096,15.37565242,.0004454,51.8676,116.2187,110.8370,107.6946,0,U,69276,999,183,.33916E-3,.12328E-3,0
KUIPER-00592,2026-118L,2026-06-04T04:00:03.000096,15.37775543,.0003952,51.8697,116.2072,88.0658,134.2664,0,U,69277,999,130,.40898E-3,.15056E-3,0
KUIPER-00593,2026-118M,2026-06-04T04:00:03.000096,15.37680373,.0003894,51.8703,116.2053,107.4433,115.0731,0,U,69278,999,204,.39138E-3,.14345E-3,0
KUIPER-00594,2026-118N,2026-06-04T04:00:03.000096,15.38490975,.000163,51.8708,116.1754,45.8097,190.3555,0,U,69279,999,130,.41716E-3,.15733E-3,0
KUIPER-00595,2026-118P,2026-06-04T04:00:03.000096,15.38345800,.0002172,51.8702,116.1870,82.7257,149.1036,0,U,69280,999,201,.39303E-3,.14727E-3,0
KUIPER-00596,2026-118Q,2026-06-04T04:00:03.000096,15.35505716,.0011961,51.8545,116.2983,137.1134,44.6011,0,U,69281,999,130,.23808E-3,.7979E-4,0
KUIPER-00597,2026-118R,2026-06-04T04:00:03.000096,15.36890828,.000711,51.8639,116.2441,125.6757,81.9865,0,U,69282,999,130,.51535E-3,.18546E-3,0
KUIPER-00599,2026-118S,2026-06-04T04:00:03.000096,15.37048948,.000643,51.8681,116.2357,116.3499,93.6145,0,U,69283,999,130,.31257E-3,.1114E-3,0
KUIPER-00600,2026-118T,2026-06-04T04:00:03.000096,15.36611726,.0008823,51.8631,116.2603,124.8825,74.9476,0,U,69284,999,186,.32126E-3,.11301E-3,0
KUIPER-00601,2026-118U,2026-06-04T04:00:03.000096,15.37365166,.0004973,51.8693,116.2234,108.7921,106.1352,0,U,69285,999,189,.57862E-3,.21197E-3,0
KUIPER-00602,2026-118V,2026-06-04T04:00:03.000096,15.37810214,.0003276,51.8691,116.2033,97.2803,127.7931,0,U,69286,999,130,.40152E-3,.1479E-3,0
KUIPER-00603,2026-118W,2026-06-04T04:00:03.000096,15.37230196,.0005774,51.8662,116.2310,112.8642,100.4942,0,U,69287,999,184,.38449E-3,.13879E-3,0
KUIPER-00605,2026-118X,2026-06-04T04:00:03.000096,15.36779461,.0007753,51.8651,116.2508,118.4241,85.5125,0,U,69288,999,168,.36784E-3,.13069E-3,0
KUIPER-00606,2026-118Y,2026-06-04T04:00:03.000096,15.37468949,.0004838,51.8685,116.2188,105.4738,112.3462,0,U,69289,999,153,.36289E-3,.13178E-3,0
KUIPER-00607,2026-118Z,2026-06-04T04:00:03.000096,15.37147959,.000647,51.8670,116.2328,111.7296,100.1389,0,U,69290,999,149,.36926E-3,.13278E-3,0
KUIPER-00608,2026-118AA,2026-06-04T04:00:03.000096,15.36174810,.0009709,51.8594,116.2721,132.8324,61.8512,0,U,69291,999,146,.28613E-3,.9879E-4,0
KUIPER-00610,2026-118AB,2026-06-04T04:00:03.000096,15.38004792,.0003049,51.8709,116.1921,89.8393,137.7192,0,U,69292,999,138,.37528E-3,.13885E-3,0
