STARLINK-37502          
1 69263U 26117AB  26155.16670139 -.01713827  99942-3 -18103-2 0  9997
2 69263  53.1582 309.0570 0000150  67.0238 247.1279 16.09730989  2071
STARLINK-37486          
1 69264U 26117AC  26155.16670139 -.01673202  96066-3 -17191-2 0  9990
2 69264  53.1581 309.0474 0000335  96.0445 222.8771 16.10148844  2073
STARLINK-37435          
1 69265U 26117AD  26155.16670139 -.01636482  92530-3 -16469-2 0  9999
2 69265  53.1582 309.0380 0000188 123.3612 199.6744 16.10457608  2079
STARLINK-37464          
1 69266U 26117AE  26155.16670139 -.01619818  91268-3 -15866-2 0  9991
2 69266  53.1581 309.0290 0000230  98.4415 228.9483 16.10864000  2074
KUIPER-00282            
1 69267U 26118A   26155.16670139  .00010344  00000+0  30725-3 0  9991
2 69267  51.8580 116.3063 0012064 138.4837  39.3543 15.35300288  1357
KUIPER-00383            
1 69268U 26118B   26155.16670139  .00010315  00000+0  30212-3 0  9991
2 69268  51.8583 116.2918 0011010 134.9344  49.9817 15.35758593  1417
KUIPER-00527            
1 69269U 26118C   26155.16670139  .00010057  00000+0  29168-3 0  9993
2 69269  51.8608 116.2764 0009771 129.5169  62.8291 15.36110833  1309
KUIPER-00562            
1 69270U 26118D   26155.16670139  .00016046  00000+0  42771-3 0  9994
2 69270  51.8710 116.1792 0002153  73.4115 158.9325 15.38310886  1947
KUIPER-00570            
1 69271U 26118E   26155.16670139  .00015423  00000+0  44734-3 0  9994
2 69271  51.8569 116.2890 0010595 138.9378  47.4977 15.35665445  1538
KUIPER-00572            
1 69272U 26118F   26155.16670139  .00013883  00000+0  39130-3 0  9997
2 69272  51.8664 116.2536 0007455 123.5940  78.5463 15.36680380  1304
KUIPER-00581            
1 69273U 26118G   26155.16670139  .00010216  00000+0  29380-3 0  9991
2 69273  51.8644 116.2671 0008948 128.5646  67.6558 15.36363683  2072
KUIPER-00584            
1 69274U 26118H   26155.16670139  .00008184  00000+0  24536-3 0  9991
2 69274  51.8598 116.2987 0011688 138.5923  42.9102 15.35318419  1307
KUIPER-00587            
1 69275U 26118J   26155.16670139  .00003187  00000+0  99133-4 0  9996
2 69275  51.8619 116.2616 0008384 128.6722  70.8306 15.36387469  1305
KUIPER-00590            
1 69276U 26118K   26155.16670139  .00012328  00000+0  33916-3 0  9990
2 69276  51.8676 116.2187 0004454 110.8370 107.6946 15.37565242  1833
KUIPER-00592            
1 69277U 26118L   26155.16670139  .00015056  00000+0  40898-3 0  9999
2 69277  51.8697 116.2072 0003952  88.0658 134.2664 15.37775543  1309
KUIPER-00593            
1 69278U 26118M   26155.16670139  .00014345  00000+0  39138-3 0  9995
2 69278  51.8703 116.2053 0003894 107.4433 115.0731 15.37680373  2049
KUIPER-00594            
1 69279U 26118N   26155.16670139  .00015733  00000+0  41716-3 0  9993
2 69279  51.8708 116.1754 0001630  45.8097 190.3555 15.38490975  1305
KUIPER-00595            
1 69280U 26118P   26155.16670139  .00014727  00000+0  39303-3 0  9996
2 69280  51.8702 116.1870 0002172  82.7257 149.1036 15.38345800  2011
KUIPER-00596            
1 69281U 26118Q   26155.16670139  .00007979  00000+0  23808-3 0  9991
2 69281  51.8545 116.2983 0011961 137.1134  44.6011 15.35505716  1302
KUIPER-00597            
1 69282U 26118R   26155.16670139  .00018546  00000+0  51535-3 0  9992
2 69282  51.8639 116.2441 0007110 125.6757  81.9865 15.36890828  1303
KUIPER-00599            
1 69283U 26118S   26155.16670139  .00011140  00000+0  31257-3 0  9995
2 69283  51.8681 116.2357 0006430 116.3499  93.6145 15.37048948  1301
KUIPER-00600            
1 69284U 26118T   26155.16670139  .00011301  00000+0  32126-3 0  9991
2 69284  51.8631 116.2603 0008823 124.8825  74.9476 15.36611726  1865
KUIPER-00601            
1 69285U 26118U   26155.16670139  .00021197  00000+0  57862-3 0  9990
2 69285  51.8693 116.2234 0004973 108.7921 106.1352 15.37365166  1893
KUIPER-00602            
1 69286U 26118V   26155.16670139  .00014790  00000+0  40152-3 0  9996
2 69286  51.8691 116.2033 0003276  97.2803 127.7931 15.37810214  1302
KUIPER-00603            
1 69287U 26118W   26155.16670139  .00013879  00000+0  38449-3 0  9990
2 69287  51.8662 116.2310 0005774 112.8642 100.4942 15.37230196  1843
KUIPER-00605            
1 69288U 26118X   26155.16670139  .00013069  00000+0  36784-3 0  9992
2 69288  51.8651 116.2508 0007753 118.4241  85.5125 15.36779461  1687
KUIPER-00606            
1 69289U 26118Y   26155.16670139  .00013178  00000+0  36289-3 0  9994
2 69289  51.8685 116.2188 0004838 105.4738 112.3462 15.37468949  1531
KUIPER-00607            
1 69290U 26118Z   26155.16670139  .00013278  00000+0  36926-3 0  9995
2 69290  51.8670 116.2328 0006470 111.7296 100.1389 15.37147959  1499
KUIPER-00608            
1 69291U 26118AA  26155.16670139  .00009879  00000+0  28613-3 0  9992
2 69291  51.8594 116.2721 0009709 132.8324  61.8512 15.36174810  1469
KUIPER-00610            
1 69292U 26118AB  26155.16670139  .00013885  00000+0  37528-3 0  9990
2 69292  51.8709 116.1921 0003049  89.8393 137.7192 15.38004792  1388
